{
    "links": {
        "self": "http://www.neowsapp.com/rest/v1/neo/3600005?api_key=iIulBulltgU6a56xZRHN4H3l9WmuAYTsLGpBGhQ2"
    },
    "id": "3600005",
    "neo_reference_id": "3600005",
    "name": "(2012 DX43)",
    "designation": "2012 DX43",
    "nasa_jpl_url": "http://ssd.jpl.nasa.gov/sbdb.cgi?sstr=3600005",
    "absolute_magnitude_h": 23.8,
    "estimated_diameter": {
        "kilometers": {
            "estimated_diameter_min": 0.046190746,
            "estimated_diameter_max": 0.1032856481
        },
        "meters": {
            "estimated_diameter_min": 46.1907460282,
            "estimated_diameter_max": 103.2856480504
        },
        "miles": {
            "estimated_diameter_min": 0.0287015901,
            "estimated_diameter_max": 0.0641787064
        },
        "feet": {
            "estimated_diameter_min": 151.544447199,
            "estimated_diameter_max": 338.8636855496
        }
    },
    "is_potentially_hazardous_asteroid": false,
    "close_approach_data": [
        {
            "close_approach_date": "2012-02-25",
            "close_approach_date_full": "2012-Feb-25 07:50",
            "epoch_date_close_approach": 1330156200000,
            "relative_velocity": {
                "kilometers_per_second": "6.0313801147",
                "kilometers_per_hour": "21712.9684129457",
                "miles_per_hour": "13491.5941785884"
            },
            "miss_distance": {
                "astronomical": "0.1669854072",
                "lunar": "64.9573234008",
                "kilometers": "24980661.238202664",
                "miles": "15522263.1165142032"
            },
            "orbiting_body": "Earth"
        }
    ],
    "orbital_data": {
        "orbit_id": "9",
        "orbit_determination_date": "2017-04-06 08:50:45",
        "first_observation_date": "2012-02-27",
        "last_observation_date": "2012-03-14",
        "data_arc_in_days": 16,
        "observations_used": 36,
        "orbit_uncertainty": "7",
        "minimum_orbit_intersection": ".149344",
        "jupiter_tisserand_invariant": "3.667",
        "epoch_osculation": "2459000.5",
        "eccentricity": ".4403661205213831",
        "semi_major_axis": "2.035641910522244",
        "inclination": "8.570460835227115",
        "ascending_node_longitude": "337.6581995730756",
        "orbital_period": "1060.841503615963",
        "perihelion_distance": "1.139214179614827",
        "perihelion_argument": "176.9493077687494",
        "aphelion_distance": "2.932069641429661",
        "perihelion_time": "2459160.221118281738",
        "mean_anomaly": "305.7981212222243",
        "mean_motion": ".3393532387005138",
        "equinox": "J2000",
        "orbit_class": {
            "orbit_class_type": "AMO",
            "orbit_class_description": "Near-Earth asteroid orbits similar to that of 1221 Amor",
            "orbit_class_range": "1.017 AU < q (perihelion) < 1.3 AU"
        }
    },
    "is_sentry_object": false
}